        "inclination_deg": '92.004500',
        "eccentricity": '0.00015950',
        "mean_motion_rev_per_day": '15.28222048',
        "altitude_m": '481127.246',
    },
    {
        "name": 'HYSIS',
        "norad_catalog_id": '43719',
        "tle_line1": '1 43719U 18096A   22104.01364225  .00001118  00000-0  15957-3 0  9991',
        "tle_line2": '2 43719  97.9629 170.7776 0003118  66.4806 293.6733 14.78673091182039',
        "epoch_iso": '2022-04-14T00:19:38.690400Z',
        "inclination_deg": '97.962900',
        "eccentricity": '0.00031180',
        "mean_motion_rev_per_day": '14.78673091',
        "altitude_m": '633515.673',
    },
    {
        "name": 'KAZSTSAT',
        "norad_catalog_id": '43783',
        "tle_line1": '1 43783U 18099AB  22103.73382909  .00001131  00000-0  11153-3 0  9991',
        "tle_line2": '2 43783  97.6356 170.9171 0009429 120.9454 239.2694 14.93883218183147',
        "epoch_iso": '2022-04-13T17:36:42.833376Z',
        "inclination_deg": '97.635600',
        "eccentricity": '0.00094290',
        "mean_motion_rev_per_day": '14.93883218',
        "altitude_m": '585841.297',
    },
    {
        "name": 'SAUDISAT 5A',
        "norad_catalog_id": '43831',
        "tle_line1": '1 43831U 18102A   22104.04082500  .00002419  00000-0  15703-3 0  9994',
        "tle_line2": '2 43831  97.4994 178.6692 0015026  45.0068  75.6918 15.08897959184469',
        "epoch_iso": '2022-04-14T00:58:47.280000Z',
        "inclination_deg": '97.499400',
        "eccentricity": '0.00150260',
        "mean_motion_rev_per_day": '15.08897959',
        "altitude_m": '539566.237',
    },
    {
        "name": 'SAUDISAT 5B',
        "norad_catalog_id": '43833',
        "tle_line1": '1 43833U 18102C   22104.01738719  .00002344  00000-0  15044-3 0  9998',
        "tle_line2": '2 43833  97.5025 179.5238 0016280  50.6754  72.5491 15.09344455184506',
        "epoch_iso": '2022-04-14T00:25:02.253216Z',
        "inclination_deg": '97.502500',
        "eccentricity": '0.00162800',
        "mean_motion_rev_per_day": '15.09344455',
        "altitude_m": '538201.901',
    },
    {
        "name": 'GAOFEN-10R',
        "norad_catalog_id": '44622',
        "tle_line1": '1 44622U 19066A   22103.83132039  .00001305  00000-0  17579-3 0  9998',
        "tle_line2": '2 44622  97.8875  44.1427 0001015  83.3450 276.7876 14.80839914136444',
        "epoch_iso": '2022-04-13T19:57:06.081696Z',
        "inclination_deg": '97.887500',
        "eccentricity": '0.00010150',
        "mean_motion_rev_per_day": '14.80839914',
        "altitude_m": '626674.188',
    },
    {
        "name": 'CARTOSAT 3',
        "norad_catalog_id": '44804',
        "tle_line1": '1 44804U 19081A   22104.08711492  .00003985  00000-0  19147-3 0  9990',
        "tle_line2": '2 44804  97.4040 166.9600 0014344  84.3036 335.3301 15.19311207131861',
        "epoch_iso": '2022-04-14T02:05:26.729088Z',
        "inclination_deg": '97.404000',
        "eccentricity": '0.00143440',
        "mean_motion_rev_per_day": '15.19311207',
        "altitude_m": '507921.064',
    },
    {
        "name": 'GAOFEN 12',
        "norad_catalog_id": '44819',
        "tle_line1": '1 44819U 19082A   22103.91400080  .00000409  00000-0  60489-4 0  9990',
        "tle_line2": '2 44819  97.8671 125.6035 0001800  70.6757 289.4645 14.80230823128391',
        "epoch_iso": '2022-04-13T21:56:09.669120Z',
        "inclination_deg": '97.867100',
        "eccentricity": '0.00018000',
        "mean_motion_rev_per_day": '14.80230823',
        "altitude_m": '628595.633',
    },
    {
        "name": 'CSG-1',
        "norad_catalog_id": '44873',
        "tle_line1": '1 44873U 19092A   22103.92080892 -.00000052  00000-0  00000+0 0  9990',
        "tle_line2": '2 44873  97.8877 288.5162 0001524  92.7952 267.3434 14.82152173125542',
        "epoch_iso": '2022-04-13T22:05:57.890688Z',
        "inclination_deg": '97.887700',
        "eccentricity": '0.00015240',
        "mean_motion_rev_per_day": '14.82152173',
        "altitude_m": '622538.992',
    },
    {
        "name": 'NEMO-HD',
        "norad_catalog_id": '46277',
        "tle_line1": '1 46277U 20061F   22104.16275590  .00003141  00000-0  16168-3 0  9993',
        "tle_line2": '2 46277  97.3952 176.3405 0002879  64.9012  18.8556 15.17136540 89112',
        "epoch_iso": '2022-04-14T03:54:22.109760Z',
        "inclination_deg": '97.395200',
        "eccentricity": '0.00028790',
        "mean_motion_rev_per_day": '15.17136540',
        "altitude_m": '514499.821',
    },
    {
        "name": 'S6 MICHAEL FREILICH',
        "norad_catalog_id": '46984',
        "tle_line1": '1 46984U 20086A   22103.95019299 -.00000061  00000-0  00000-0 0  9997',
        "tle_line2": '2 46984  66.0435  63.0001 0007921 266.3653  93.6466 12.80930177 65101',
        "epoch_iso": '2022-04-13T22:48:16.674336Z',
        "inclination_deg": '66.043500',
        "eccentricity": '0.00079210',
        "mean_motion_rev_per_day": '12.80930177',
        "altitude_m": '1337732.432',
    },
    {
        "name": 'GAOFEN 12 (02)',
        "norad_catalog_id": '48079',
        "tle_line1": '1 48079U 21026A   22103.94316012  .00024339  00000-0  31974-2 0  9990',
        "tle_line2": '2 48079  97.8911  95.6996 0002089  78.7362 281.4986 14.80215487 56088',
        "epoch_iso": '2022-04-13T22:38:09.034368Z',
        "inclination_deg": '97.891100',
        "eccentricity": '0.00020890',
        "mean_motion_rev_per_day": '14.80215487',
        "altitude_m": '628644.030',
    },
    {
        "name": 'PNEO3',
        "norad_catalog_id": '48268',
        "tle_line1": '1 48268U 21034A   22103.82976902  .00000040  00000-0  11722-4 0  9990',
        "tle_line2": '2 48268  97.8928 179.4845 0001386  94.7876 265.3492 14.81673980 51789',
        "epoch_iso": '2022-04-13T19:54:52.043328Z',
        "inclination_deg": '97.892800',
        "eccentricity": '0.00013860',
        "mean_motion_rev_per_day": '14.81673980',
        "altitude_m": '624045.169',
    },
    {
        "name": 'PNEO4',
        "norad_catalog_id": '49070',
        "tle_line1": '1 49070U 21073E   22104.20119030 -.00000266  00000-0 -27139-4 0  9990',
        "tle_line2": '2 49070  97.8932 179.8468 0001420  85.5718 274.5653 14.81670791 35558',
        "epoch_iso": '2022-04-14T04:49:42.841920Z',
        "inclination_deg": '97.893200',
        "eccentricity": '0.00014200',
        "mean_motion_rev_per_day": '14.81670791',
        "altitude_m": '624055.216',
    },
    {
        "name": 'LANDSAT 9',
        "norad_catalog_id": '49260',
        "tle_line1": '1 49260U 21088A   22104.18399381  .00000276  00000-0  71336-4 0  9990',
        "tle_line2": '2 49260  98.1907 175.3747 0001647 112.6961 247.4412 14.57124128 28914',
        "epoch_iso": '2022-04-14T04:24:57.065184Z',
        "inclination_deg": '98.190700',
        "eccentricity": '0.00016470',
        "mean_motion_rev_per_day": '14.57124128',
        "altitude_m": '702475.187',
    },
    {
        "name": 'CSG-2',
        "norad_catalog_id": '51444',
        "tle_line1": '1 51444U 22008A   22104.02208265 -.00000502  00000-0 -56507-4 0  9990',
        "tle_line2": '2 51444  97.8801 288.6217 0001546  85.4194 274.7127 14.82156958 10677',
        "epoch_iso": '2022-04-14T00:31:47.940960Z',
        "inclination_deg": '97.880100',
        "eccentricity": '0.00015460',
        "mean_motion_rev_per_day": '14.82156958',
        "altitude_m": '622523.925',
    },
]

CACHE_TARGET_EPOCH_UTC = '2022-04-14T00:00:00Z'
CACHE_SOURCE = "IAU CPS SatChecker get-nearest-tle"
CACHE_MAX_EPOCH_AGE_DAYS = 7
CACHE_SKIPPED_NORAD_IDS: tuple[int, ...] = (52912, 54754, 57654, 59065, 59371, 59625, 59626, 60182, 60452, 60453, 60989, 61735, 61736, 63772, 64694, 64876, 64877, 64899, 64900, 64901, 64902, 64903, 66514, 67304)

__all__ = ["CACHED_CELESTRAK_ROWS"]
